LAOSAT 1                
1 41034U 15067A   26176.83565049 -.00000332  00000+0  00000+0 0  9990
2 41034   0.0504 219.3296 0002657 190.0874 293.8950  1.00271978 38949
TELSTAR 12V             
1 41036U 15068A   26176.80721183 -.00000108  00000+0  00000+0 0  9994
2 41036   0.0171 331.1163 0002451 125.3087  93.1218  1.00273320 38712
ELEKTRO-L 2             
1 41105U 15074A   26175.45272256 -.00000115  00000+0  00000+0 0  9998
2 41105   6.7126  70.4366 0000705 278.7793  71.8306  1.00271170 38573
COSMOS 2513             
1 41121U 15075A   26176.82603044 -.00000127  00000+0  00000+0 0  9995
2 41121   0.0737 102.7210 0003465 333.9749 214.8893  1.00270451 38632
EXPRESS-AMU1            
1 41191U 15082A   26176.81733795  .00000166  00000+0  00000+0 0  9998
2 41191   0.0175  30.8959 0002958  64.0065 149.3637  1.00271620 38351
GAOFEN-4                
1 41194U 15083A   26176.83114378 -.00000324  00000+0  00000+0 0  9991
2 41194   0.3803  83.9151 0004035 114.0016 120.9663  1.00271100 38614
BELINTERSAT-1           
1 41238U 16001A   26176.82019796  .00000118  00000+0  00000+0 0  9998
2 41238   0.0024 308.6980 0001857 113.2948 198.7321  1.00270271 38326
IRNSS-1E                
1 41241U 16003A   26176.59836588 -.00000319  00000+0  00000+0 0  9998
2 41241  33.2517  59.6282 0019062 179.1130   2.2203  1.00274592 38164
EUTELSAT 9B             
1 41310U 16005A   26176.81196461  .00000072  00000+0  00000+0 0  9996
2 41310   0.0437  62.0838 0001781   2.2198 150.9581  1.00269726 38206
SES-9                   
1 41380U 16013A   26176.40380905 -.00000335  00000+0  00000+0 0  9998
2 41380   0.0123 330.7857 0002423 116.8635  79.5646  1.00272436 37527
EUTELSAT 65 WEST A      
1 41382U 16014A   26176.51208036 -.00000266  00000+0  00000+0 0  9990
2 41382   0.0469 352.2009 0002706  99.0767 301.5278  1.00272112 37601
IRNSS-1F                
1 41384U 16015A   26176.81655795  .00000164  00000+0  00000+0 0  9990
2 41384   5.3700  96.5859 0017446 184.4692 319.2578  1.00271920 37754
BEIDOU-2 IGSO-6         
1 41434U 16021A   26175.09191728 -.00000155  00000+0  00000+0 0  9994
2 41434  60.2358  37.9691 0057538 231.1257 128.7042  1.00259092 37558
IRNSS-1G                
1 41469U 16027A   26176.35615294 -.00000329  00000+0  00000+0 0  9990
2 41469   5.2158  97.2878 0006269   2.9813  70.7125  1.00276580 37263
JCSAT-2B                
1 41471U 16028A   26176.82197531 -.00000155  00000+0  00000+0 0  9992
2 41471   0.0182   8.6924 0001184  80.3623 274.8101  1.00271062 37210
THAICOM 8               
1 41552U 16031A   26176.82568376 -.00000111  00000+0  00000+0 0  9997
2 41552   0.0699  46.7300 0003830  18.5282 224.4336  1.00272262 36806
INTELSAT 31 (IS-31)     
1 41581U 16035A   26176.36358354 -.00000141  00000+0  00000+0 0  9998
2 41581   0.0133 298.7394 0000686 318.5498  52.0469  1.00270776 36766
BEIDOU-2 G7             
1 41586U 16037A   26176.83209714 -.00000344  00000+0  00000+0 0  9997
2 41586   1.7419  69.4098 0006825   0.7604 253.9002  1.00272872  6974
ABS-2A (MONGOLSAT-1)    
1 41588U 16038A   26175.32786645  .00000000  00000+0  00000+0 0  9994
2 41588   0.0209   2.0142 0002301  26.2948  76.9601  1.00269599 36789
EUTELSAT 117 WEST B     
1 41589U 16038B   26176.35910432 -.00000002  00000+0  00000+0 0  9995
2 41589   0.0126 150.0316 0000390  73.9936  61.7629  1.00271272 36746
BRISAT                  
1 41591U 16039A   26176.62607149 -.00000186  00000+0  00000+0 0  9990
2 41591   0.0189 323.1245 0002199 128.8057 197.7048  1.00270828 36690
ECHOSTAR 18             
1 41592U 16039B   26176.58277853 -.00000272  00000+0  00000+0 0  9997
2 41592   0.0036  86.4329 0001876   8.8577 326.8628  1.00275248 36701
MUOS-5                  
1 41622U 16041A   26176.14785492 -.00000139  00000+0  00000+0 0  9991
2 41622   2.1858 301.8199 0197920 260.6421  18.8596  1.00272999 37164
TIANTONG-1 1            
1 41725U 16048A   26176.54506031 -.00000311  00000+0  00000+0 0  9998
2 41725   3.8653  43.4917 0005891  48.0327 119.8062  1.00271726 36351
JCSAT-16                
1 41729U 16050A   26176.83842382 -.00000240  00000+0  00000+0 0  9990
2 41729   0.0181   5.4102 0001268  96.5723 257.7724  1.00271544 36159
USA 270                 
1 41744U 16052A   26173.63364372 -.00000244  00000+0  00000+0 0  9996
2 41744   4.2102  77.1345 0000555 163.5272  57.8891  0.99500873 28187
USA 271                 
1 41745U 16052B   26174.05095881 -.00000272  00000+0  00000+0 0  9991
2 41745   4.1840  77.1777 0002049 291.6696  27.7147  0.99834520 27973
INTELSAT 36 (IS-36)     
1 41747U 16053A   26176.18209406 -.00000015  00000+0  00000+0 0  9995
2 41747   0.0128  20.9268 0002042 321.7510  64.7168  1.00272521 36034
INSAT-3DR               
1 41752U 16054A   26176.82481711 -.00000066  00000+0  00000+0 0  9990
2 41752   0.1279  86.2391 0010089 187.1565  11.4656  1.00272358 35908
GSAT-18                 
1 41793U 16060A   26176.82481711 -.00000066  00000+0  00000+0 0  9992
2 41793   0.0797  93.8909 0005812 343.5502 207.4233  1.00272144 35612
SKY MUSTER 2 (NBN1B)    
1 41794U 16060B   26176.63169810 -.00000234  00000+0  00000+0 0  9992
2 41794   0.0102  13.0665 0001797  84.8900 188.0267  1.00271404 35609
HIMAWARI-9              
1 41836U 16064A   26176.83807715  .00000000  00000+0  00000+0 0  9998
2 41836   0.0246  33.3577 0001216  81.1631 241.9238  1.00269145 35290
